STARLINK-6379           
1 57343U 23099R   23332.49516845  .00017510  00000+0  13075-2 0  9991
2 57343  43.0031  90.8154 0001347 266.2619  93.8069 15.02550928 20935
STARLINK-6380           
1 57344U 23099S   23332.48629235  .00021201  00000+0  15790-2 0  9997
2 57344  43.0028  90.7474 0001323 287.6135  72.4562 15.02553980 20932
STARLINK-6373           
1 57345U 23099T   23332.48962285  .00017479  00000+0  13053-2 0  9995
2 57345  43.0030  90.7734 0001391 287.8766  72.1925 15.02548852 20934
STARLINK-6359           
1 57346U 23099U   23332.53391375  .00021511  00000+0  16025-2 0  9992
2 57346  43.0041  90.2460 0001396 249.7627 110.3065 15.02537751 20943
STARLINK-6378           
1 57347U 23099V   23332.48185245  .00019266  00000+0  14367-2 0  9995
2 57347  43.0041  90.7152 0001303 278.3839  81.6855 15.02552616 20931
STARLINK-6372           
1 57348U 23099W   23332.53058717 -.00004041  00000+0 -28437-3 0  9996
2 57348  43.0038  90.2196 0001099 266.0245  94.0472 15.02514897 20941
STARLINK-6376           
1 57349U 23099X   23332.53279213  .00009259  00000+0  69951-3 0  9993
2 57349  43.0039  90.2378 0001311 268.8115  91.2577 15.02540911 21669
STARLINK-6362           
1 57350U 23099Y   23332.53871244  .00020108  00000+0  14987-2 0  9991
2 57350  43.0041  78.1156 0001428 261.7130  98.3551 15.02551124 21085
STARLINK-6331           
1 57351U 23099Z   23332.52945484 -.00000471  00000+0 -19778-4 0  9997
2 57351  43.0048  90.2127 0001047 256.1527 103.9199 15.02545019 20942
STARLINK-6297           
1 57352U 23099AA  23332.53315454  .00000279  00000+0  35739-4 0  9996
2 57352  43.0050  78.0722 0001155 271.2058  88.8652 15.02547393 21086
STARLINK-6324           
1 57353U 23099AB  23332.52723786  .00013527  00000+0  10141-2 0  9995
2 57353  43.0037  90.1939 0001418 258.4122 101.6561 15.02549547 20948
STARLINK-6293           
1 57354U 23099AC  23332.52316188  .00000323  00000+0  38994-4 0  9998
2 57354  43.0050  77.9979 0001178 278.6245  81.4464 15.02550545 21087
STARLINK-6276           
1 57355U 23099AD  23332.53537402 -.00000373  00000+0 -12505-4 0  9991
2 57355  43.0047  78.0894 0001123 268.3040  91.7674 15.02544601 21084
STARLINK-6355           
1 57356U 23099AE  23332.52205142  .00000015  00000+0  16210-4 0  9992
2 57356  43.0053  77.9889 0001232 284.0381  76.0324 15.02551753 21082
STARLINK-5600           
1 57357U 23099AF  23332.52982838 -.00000526  00000+0 -23898-4 0  9996
2 57357  43.0047  78.0473 0001128 282.5000  77.5716 15.02543104 21084
STARLINK-6299           
1 57358U 23099AG  23332.51651237  .00010619  00000+0  79962-3 0  9996
2 57358  43.0044  77.9454 0001337 289.7630  70.3068 15.02551916 21822
STARLINK-6347           
1 57359U 23099AH  23332.52870944  .00000683  00000+0  65618-4 0  9990
2 57359  43.0051  78.0388 0001192 273.9895  86.0811 15.02550678 21088
STARLINK-6348           
1 57360U 23099AJ  23332.57632797  .00002894  00000+0  22918-3 0  9990
2 57360  43.0043  77.5341 0001272 268.3121  91.7576 15.02546953 21096
STARLINK-6340           
1 57361U 23099AK  23332.51872023  .00000511  00000+0  52864-4 0  9991
2 57361  43.0052  77.9629 0001196 279.8919  80.1788 15.02554591 21080
STARLINK-6343           
1 57362U 23099AL  23332.57299903 -.00000449  00000+0 -18133-4 0  9991
2 57362  43.0056  77.5088 0001295 279.1941  80.8754 15.02541531 21099
STARLINK-6356           
1 57363U 23099AM  23332.51318561  .00024450  00000+0  18175-2 0  9998
2 57363  43.0048  77.9211 0001361 290.8616  69.2080 15.02561557 21088
STARLINK-6338           
1 57364U 23099AN  23332.57186647  .00001816  00000+0  14935-3 0  9995
2 57364  43.0053  77.4990 0001201 269.4626  90.6079 15.02560687 21090
STARLINK-5007           
1 57365U 23099AP  23332.56301195  .00020521  00000+0  15291-2 0  9991
2 57365  43.0045  77.4290 0001309 289.6831  70.3870 15.02552133 21097
STARLINK-6174           
1 57366U 23099AQ  23332.56523269 -.00004348  00000+0 -30704-3 0  9998
2 57366  43.0053  77.4475 0001316 260.2106  99.8588 15.02533400 21098
STARLINK-6215           
1 57367U 23099AR  23332.55992170  .00000924  00000+0  83436-4 0  9994
2 57367  43.0050  64.3804 0001169 275.2387  84.8322 15.02549802 21992
STARLINK-6218           
1 57368U 23099AS  23332.55968268  .00021642  00000+0  16114-2 0  9993
2 57368  43.0046  77.4075 0001333 288.9667  71.1031 15.02555019 21092
STARLINK-6168           
1 57369U 23099AT  23332.56855175  .00001039  00000+0  91968-4 0  9997
2 57369  43.0054  77.4739 0001228 270.6878  89.3823 15.02550277 21095
STARLINK-5353           
1 57370U 23099AU  23332.55300927  .00001980  00000+0  16153-3 0  9995
2 57370  43.0054  77.3558 0001216 255.8429 104.2278 15.02553770 21091
STARLINK-6032           
1 57371U 23099AV  23332.56190040  .00009747  00000+0  73538-3 0  9999
2 57371  43.0051  77.4245 0001255 289.4428  70.6279 15.02548276 21090
STARLINK-5975           
1 57372U 23099AW  23332.54524174  .00001260  00000+0  10827-3 0  9991
2 57372  43.0052  77.2889 0001249 271.6002  88.4697 15.02546134 21090
STARLINK-6370           
1 57373U 23099AX  23332.62282594  .00006805  00000+0  51813-3 0  9998
2 57373  43.0047  77.0201 0001376 263.6628  96.4058 15.02550437 21100
STARLINK-6369           
1 57374U 23099AY  23332.58989585 -.00000087  00000+0  86145-5 0  9993
2 57374  43.0045  64.6195 0001134 278.2648  81.8066 15.02551586 21247
STARLINK-6363           
1 57375U 23099AZ  23332.55188380  .00002523  00000+0  20162-3 0  9996
2 57375  43.0057  77.3484 0001087 274.3223  85.7495 15.02564393 21098
STARLINK-6367           
1 57376U 23099BA  23332.54191088  .00001942  00000+0  15875-3 0  9994
2 57376  43.0054  77.2724 0001228 262.3485  97.7218 15.02544314 21093
STARLINK-6358           
1 57377U 23099BB  23332.61282517  .00001442  00000+0  12173-3 0  9994
2 57377  43.0055  76.9451 0001238 274.1145  85.9556 15.02551103 21103
STARLINK-6364           
1 57378U 23099BC  23332.57211382  .00001657  00000+0  13093-3 0  9992
2 57378  43.0039  51.4899 0001131 269.2587  90.8127 15.04502743 22138
STARLINK-6361           
1 57379U 23099BD  23332.54303315  .00002501  00000+0  20015-3 0  9999
2 57379  43.0049  77.2802 0001190 250.0742 109.9972 15.02541758 21097
STARLINK-6366           
1 57380U 23099BE  23332.56573244  .00000770  00000+0  72027-4 0  9990
2 57380  43.0038  51.4396 0000900 252.4587 107.6157 15.02553776 22128
STARLINK-6371           
1 57381U 23099BF  23332.55659612  .00001961  00000+0  16018-3 0  9994
2 57381  43.0046  64.3700 0001189 274.0799  85.9908 15.02544646 21986
STARLINK-30240          
1 57404U 23102A   23332.52067113  .00002207  00000+0  17829-3 0  9996
2 57404  43.0048  90.8921 0001232 285.3653  74.7053 15.02556416 21059
STARLINK-30192          
1 57405U 23102B   23332.51736682  .00034861  00000+0  25799-2 0  9995
2 57405  43.0006  90.8571 0001251 270.1536  89.9163 15.02580319 21057
STARLINK-30195          
1 57406U 23102C   23332.51402210  .00005968  00000+0  45636-3 0  9992
2 57406  42.9995  90.8363 0000832 240.6015 119.4745 15.02546134 21052
STARLINK-30207          
1 57407U 23102D   23332.61395453  .00038135  00000+0  28195-2 0  9996
2 57407  43.0026  76.9544 0001439 299.5258  60.5441 15.02579709 21235
STARLINK-30205          
1 57408U 23102E   23332.50405112  .00031017  00000+0  22996-2 0  9994
2 57408  43.0015  90.7674 0001356 298.0596  62.0109 15.02559517 21052
STARLINK-30222          
1 57409U 23102F   23332.56052569  .00013709  00000+0  10277-2 0  9992
2 57409  43.0035  90.3326 0001283 268.5284  91.5411 15.02543534 21066
STARLINK-30172          
1 57410U 23102G   23332.56717943  .00019493  00000+0  14539-2 0  9999
2 57410  43.0022  90.3717 0001245 276.8755  83.1946 15.02540353 21067
STARLINK-30214          
1 57411U 23102H   23332.53721127  .00023602  00000+0  17555-2 0  9994
2 57411  43.0036  90.1635 0001770 265.3429  94.7211 15.02554183 21018
STARLINK-30182          
1 57412U 23102J   23332.43089934  .00002725  00000+0  21671-3 0  9995
2 57412  43.0041  91.0768 0001687 288.5820  71.4839 15.02537410 21046
STARLINK-30191          
1 57413U 23102K   23332.55386599  .00022091  00000+0  16444-2 0  9995
2 57413  43.0030  90.2811 0001449 258.3039 101.7641 15.02554577 21061
STARLINK-30193          
1 57414U 23102L   23332.55719710  .00035861  00000+0  26535-2 0  9992
2 57414  43.0040  90.3033 0001349 302.7923  57.2789 15.02574104 21061
STARLINK-30208          
1 57415U 23102M   23332.55053558  .00027001  00000+0  20049-2 0  9995
2 57415  43.0028  90.2549 0001251 261.2154  98.8546 15.02560376 21019
STARLINK-30224          
1 57416U 23102N   23332.48073058  .00028551  00000+0  21185-2 0  9998
2 57416  43.0036  90.5918 0001520 298.0862  61.9826 15.02562781 21053
STARLINK-30043          
1 57417U 23102P   23332.54053814  .00004664  00000+0  35998-3 0  9991
2 57417  43.0032  90.1788 0001311 283.8369  76.2327 15.02551230 21066
STARLINK-30221          
1 57418U 23102Q   23332.54387609  .00015126  00000+0  11320-2 0  9991
2 57418  43.0029  90.2040 0001433 262.3248  97.7432 15.02548616 21067
STARLINK-30189          
1 57430U 23105A   23332.51045688  .00013862  00000+0  10390-2 0  9994
2 57430  43.0027 103.9529 0001276 284.4163  75.6538 15.02543789 20336
STARLINK-30170          
1 57431U 23105B   23332.57359754  .00003118  00000+0  24572-3 0  9994
2 57431  43.0025 103.5666 0001392 255.4458 104.6230 15.02543892 20390
STARLINK-30188          
1 57432U 23105C   23332.50379651  .00025081  00000+0  18640-2 0  9997
2 57432  43.0029 103.9030 0001400 285.2403  74.8285 15.02557917 20341
STARLINK-30105          
1 57433U 23105D   23332.46170303  .00018136  00000+0  74078-3 0  9997
2 57433  43.0046  87.4499 0003013 330.2590  29.8089 15.24082907 20625
STARLINK-30102          
1 57434U 23105E   23332.49714187  .00020931  00000+0  15594-2 0  9998
2 57434  43.0025 103.8529 0001465 289.5156  70.5528 15.02548978 20322
